2022 64
NOAA 15                 
1 25338U 98030A   22063.81071109  .00000091  00000+0  56320-4 0  9990
2 25338  98.6572  94.6521 0009514 239.1322 120.8922 14.26094536238106
DMSP 5D-3 F15 (USA 147) 
1 25991U 99067A   22063.87665839  .00000098  00000+0  72165-4 0  9993
2 25991  99.0465  53.7004 0010989 122.4713 356.7993 14.16503787148969
METEOSAT-8 (MSG-1)      
1 27509U 02040B   22063.60130525  .00000124  00000+0  00000+0 0  9999
2 27509   7.8454  51.2039 0000985 318.4149  50.5612  1.00272192 71567
DMSP 5D-3 F16 (USA 172) 
1 28054U 03048A   22063.90994249  .00000008  00000+0  28170-4 0  9992
2 28054  98.9818  54.2169 0006402 251.4954 139.2799 14.13654469948265
NOAA 18                 
1 28654U 05018A   22063.81034327  .00000117  00000+0  87357-4 0  9992
2 28654  98.9603 134.2882 0013299 266.2846  93.6805 14.12694525865209
METEOSAT-9 (MSG-2)      
1 28912U 05049B   22063.74041823  .00000115  00000+0  00000+0 0  9997
2 28912   5.7863  66.9559 0000937 235.3456 145.7415  1.00418071 59340
FORMOSAT-3 FM6          
1 29047U 06011A   22063.89270623  .00000155  00000+0  76530-4 0  9995
2 29047  71.9768 273.2825 0048690  62.3887 298.2181 14.28912787830621
FORMOSAT-3 FM1          
1 29048U 06011B   22063.78710983  .00000147  00000+0  73943-4 0  9998
2 29048  71.9669 183.6818 0043018  20.3376 339.9461 14.28863497833084
FORMOSAT-3 FM5          
1 29049U 06011C   22063.89389636  .00000252  00000+0  11522-3 0  9999
2 29049  72.0228 358.6696 0033382  41.0076 319.3562 14.28949821828899
FORMOSAT-3 FM3          
1 29050U 06011D   22063.76154215  .00000487  00000+0  11161-3 0  9999
2 29050  72.0145  80.9846 0052072 268.1075  91.4114 14.59264899847519
FORMOSAT-3 FM4          
1 29051U 06011E   22063.87891486  .00000188  00000+0  88410-4 0  9990
2 29051  72.0032 259.5399 0069845 282.7965  76.5373 14.28981058831476
FORMOSAT-3 FM2          
1 29052U 06011F   22063.83225957  .00000219  00000+0  10167-3 0  9999
2 29052  72.0364 335.7101 0039974 358.3504   1.7494 14.29092769828969
EWS-G1 (GOES 13)        
1 29155U 06018A   22063.87410497  .00000023  00000+0  00000+0 0  9993
2 29155   0.3250  97.7453 0003020 164.5389 276.4009  1.00270576 27689
METOP-A                 
1 29499U 06044A   22063.88143611  .00000681  00000+0  99776-4 0  9998
2 29499  98.4660 105.1073 0198168 336.1087 143.8189 14.66963634795346
DMSP 5D-3 F17 (USA 191) 
1 29522U 06050A   22063.85329289  .00000067  00000+0  58189-4 0  9997
2 29522  98.7739  80.8342 0009658 192.7234 167.3696 14.14075518791120
FENGYUN 3A              
1 32958U 08026A   22063.87672834  .00000049  00000+0  43629-4 0  9991
2 32958  98.4891  30.8578 0008250 332.6982  27.3759 14.18691896713396
FENGYUN 2E              
1 33463U 08066A   22063.53859221 -.00000217  00000+0  00000+0 0  9996
2 33463   5.6735  65.8985 0004493 351.1288  25.8755  1.00270774 48390
NOAA 19                 
1 33591U 09005A   22063.87072855  .00000109  00000+0  84052-4 0  9992
2 33591  99.1618  95.7449 0014765 120.2913 239.9721 14.12534548673428
GOES 14                 
1 35491U 09033A   22063.65754123 -.00000107  00000+0  00000+0 0  9990
2 35491   0.0687  81.3579 0012666 145.5188  67.6895  1.00271589 46410
METEOR-M 1              
1 35865U 09049A   22063.85976240  .00000051  00000+0  41800-4 0  9995
2 35865  98.5157  37.7751 0002650 146.2093 213.9255 14.22308667646677
DMSP 5D-3 F18 (USA 210) 
1 35951U 09057A   22063.92311146  .00000169  00000+0  11237-3 0  9996
2 35951  98.7125  45.9430 0011713  29.7827 330.4011 14.13452131638363
GOES 15                 
1 36411U 10008A   22063.71102571  .00000038  00000+0  00000+0 0  9990
2 36411   0.0387 126.8314 0000515 230.8038 293.1944  1.00259281 43978
COMS 1                  
1 36744U 10032A   22063.83391609 -.00000359  00000+0  00000+0 0  9998
2 36744   0.8013  95.1360 0000924 274.4781 221.3264  1.00270315 35399
FENGYUN 3B              
1 37214U 10059A   22063.85684114 -.00000044  00000+0  10548-5 0  9993
2 37214  99.0931  67.9683 0021198 291.3818  68.5088 14.14244630586173
SUOMI NPP               
1 37849U 11061A   22063.88578706  .00000050  00000+0  44343-4 0  9998
2 37849  98.7239   3.9373 0000878  81.1190 354.8712 14.19547156536365
FENGYUN 2F              
1 38049U 12002A   22063.83068902 -.00000371  00000+0  00000+0 0  9998
2 38049   3.5376  80.4731 0004444   5.7143 127.3516  1.00280460 37184
METEOSAT-10 (MSG-3)     
1 38552U 12035B   22063.81019274  .00000046  00000+0  00000+0 0  9997
2 38552   1.3839  34.1152 0001081 236.5390 192.7346  1.00272604 35162
METOP-B                 
1 38771U 12049A   22063.88767289  .00000042  00000+0  39084-4 0  9993
2 38771  98.6787 125.1895 0001106  44.3368  11.0230 14.21499051490882
FENGYUN 3C              
1 39260U 13052A   22063.82636580  .00000053  00000+0  47913-4 0  9997
2 39260  98.4680  97.1725 0010436 211.3124 148.7420 14.15902688437112
METEOR-M 2              
1 40069U 14037A   22063.80865280  .00000009  00000+0  23472-4 0  9994
2 40069  98.4411  86.3423 0004510 266.2767  93.7884 14.20698784397007
HIMAWARI-8              
1 40267U 14060A   22063.83644542 -.00000291  00000+0  00000+0 0  9990
2 40267   0.0260 151.9616 0000944 212.4008 239.9883  1.00268545 27060
FENGYUN 2G              
1 40367U 14090A   22063.82815969 -.00000315  00000+0  00000+0 0  9993
2 40367   1.6732  90.4568 0002275 339.5020 129.9316  1.00283871 26303
METEOSAT-11 (MSG-4)     
1 40732U 15034A   22063.80844838 -.00000013  00000+0  00000+0 0  9998
2 40732   0.1915 353.6628 0001721  76.4582  23.9323  1.00281462 24338
ELEKTRO-L 2             
1 41105U 15074A   22063.80548296 -.00000129  00000+0  00000+0 0  9994
2 41105   2.7254  89.3639 0000332  76.2333 272.3937  1.00272861 22816
HIMAWARI-9              
1 41836U 16064A   22063.83644542 -.00000289  00000+0  00000+0 0  9996
2 41836   0.0280 240.1201 0000533  89.9209 274.3635  1.00273950 19492
GOES 16                 
1 41866U 16071A   22063.79335965 -.00000263  00000+0  00000+0 0  9990
2 41866   0.0864 285.9862 0000923  94.1197 352.7920  1.00272938 19415
FENGYUN 4A              
1 41882U 16077A   22063.82929352 -.00000345  00000+0  00000+0 0  9998
2 41882   0.1601  87.3161 0005621 350.3883 128.0555  1.00273540 19281
CYGFM05                 
1 41884U 16078A   22063.53439702  .00001871  00000+0  97598-4 0  9991
2 41884  34.9557 134.9369 0015768 232.6371 127.2904 15.15636114288855
CYGFM04                 
1 41885U 16078B   22063.55678477  .00001941  00000+0  99773-4 0  9993
2 41885  34.9488 124.6096 0014245 247.9155 112.0044 15.16150432288896
CYGFM02                 
1 41886U 16078C   22063.54942402  .00002066  00000+0  10598-3 0  9991
2 41886  34.9582 126.8175 0015058 242.3687 117.5496 15.16169616288970
CYGFM01                 
1 41887U 16078D   22063.58726215  .00001914  00000+0  10038-3 0  9998
2 41887  34.9525 136.8093 0016184 232.5254 127.3985 15.15413384288818
CYGFM08                 
1 41888U 16078E   22063.53732600  .00001893  00000+0  98154-4 0  9991
2 41888  34.9495 130.2499 0015451 242.6346 117.2794 15.15845522288935
CYGFM06                 
1 41889U 16078F   22063.53063902  .00001902  00000+0  97715-4 0  9997
2 41889  34.9577 125.6325 0013903 242.1675 117.7628 15.16182193288911
CYGFM07                 
1 41890U 16078G   22063.44542257  .00002146  00000+0  11019-3 0  9997
2 41890  34.9515 124.9955 0013717 245.7110 114.2169 15.16138597288889
CYGFM03                 
1 41891U 16078H   22063.50945498  .00002136  00000+0  10970-3 0  9993
2 41891  34.9547 125.0365 0013249 244.5973 115.3367 15.16133802288882
FENGYUN 3D              
1 43010U 17072A   22063.79785275  .00000016  00000+0  28999-4 0  9995
2 43010  98.8049   8.9793 0001705 164.0074 196.1161 14.19184403222926
NOAA 20                 
1 43013U 17073A   22063.83549917  .00000010  00000+0  25478-4 0  9998
2 43013  98.7479   3.8402 0001227  64.4986 295.6316 14.19531066222388
GOES 17                 
1 43226U 18022A   22063.71299194  .00000083  00000+0  00000+0 0  9994
2 43226   0.0711 287.9008 0000342  74.7314 279.2267  1.00272076 14721
FENGYUN 2H              
1 43491U 18050A   22063.82414765 -.00000143  00000+0  00000+0 0  9992
2 43491   0.8849  99.5685 0003122  20.8837  58.0596  1.00272817 13746
METOP-C                 
1 43689U 18087A   22063.84367194  .00000045  00000+0  40399-4 0  9996
2 43689  98.6984 125.4403 0002540   5.9003 354.2203 14.21486555172441
GEO-KOMPSAT-2A          
1 43823U 18100A   22063.83391609 -.00000359  00000+0  00000+0 0  9998
2 43823   0.0148 113.8041 0001136 286.3644 190.8552  1.00270975 11921
METEOR-M2 2             
1 44387U 19038A   22063.85798862 -.00000025  00000+0  83205-5 0  9993
2 44387  98.7089  25.5508 0000888 161.1647 198.9574 14.23700374138527
FENGYUN 3E              
1 49008U 21062A   22063.85855270 -.00000019  00000+0  11454-4 0  9994
2 49008  98.7105  67.4661 0001166 339.0208  21.0912 14.19820863 34477
